{"epoch":1784799577,"count":18318,"objects":[{"id":"29228","name":"RESURS DK-1","type":"PAYLOAD","l1":"1 29228U 06021A   26203.33295939  .00001431  00000-0  86164-4 0  9996","l2":"2 29228  69.9299 248.5646 0007524 263.4935  96.5374 15.13337369107894"},{"id":"32382","name":"RADARSAT 2","type":"PAYLOAD","l1":"1 32382U 07061A   26204.00283456 -.00000140  00000-0 -37343-4 0  9995","l2":"2 32382  98.5795 210.4244 0001305  87.7182 272.4150 14.29980151971077"},{"id":"37387","name":"RESOURCESAT 2","type":"PAYLOAD","l1":"1 37387U 11015A   26203.91389446  .00000054  00000-0  44738-4 0  9992","l2":"2 37387  98.7625 271.1053 0011980 149.8556 210.3313 14.21600835791250"},{"id":"37791","name":"RASAT","type":"PAYLOAD","l1":"1 37791U 11044D   26203.96761237  .00000091  00000-0  24170-4 0  9999","l2":"2 37791  98.0575 294.8191 0021973  79.7385  35.7027 14.68196706798431"},{"id":"41877","name":"RESOURCESAT 2A","type":"PAYLOAD","l1":"1 41877U 16074A   26203.96583213  .00000124  00000-0  76843-4 0  9994","l2":"2 41877  98.7510 277.1751 0001899   9.7963 350.3251 14.21610172499387"},{"id":"44322","name":"RCM 1","type":"PAYLOAD","l1":"1 44322U 19033A   26204.00536236  .00000470  00000-0  51128-4 0  9992","l2":"2 44322  97.7600 210.9467 0001532  92.4947 293.5321 14.92591353387422"},{"id":"44323","name":"RCM 3","type":"PAYLOAD","l1":"1 44323U 19033B   26203.95611525  .00000067  00000-0  11958-4 0  9990","l2":"2 44323  97.7600 210.9926 0001511  92.7703 267.3689 14.92587013387438"},{"id":"44324","name":"RCM 2","type":"PAYLOAD","l1":"1 44324U 19033C   26203.97832208  .00000760  00000-0  79342-4 0  9997","l2":"2 44324  97.7599 210.9647 0001499  91.5436 268.5955 14.92592528387426"},{"id":"60542","name":"QPS-SAR-8 AMATERU-IV","type":"PAYLOAD","l1":"1 60542U 24149CC  26203.18200658  .00004727  00000-0  34257-3 0  9994","l2":"2 60542  97.6638 282.0428 0002858  17.5872 342.5453 15.04433924105532"},{"id":"63205","name":"QPS-SAR-9 SUSANOO-I","type":"PAYLOAD","l1":"1 63205U 25050A   26203.86315843  .00004585  00000-0  34464-3 0  9995","l2":"2 63205  42.0188 265.0505 0004200   9.8329 350.2579 15.03441479 74337"}]}